MORELOS 3               
1 40946U 15056A   17345.00608973 -.00000057  00000-0  00000-0 0  9996
2 40946   6.1929 329.0296 0002650 357.7122   2.2924  1.00272855  8101
